COMMENT,ORIGINATOR,NORAD_CAT_ID,OBJECT_NAME,OBJECT_TYPE,CLASSIFICATION_TYPE,INTLDES,EPOCH,EPOCH_MICROSECONDS,MEAN_MOTION,ECCENTRICITY,INCLINATION,RA_OF_ASC_NODE,ARG_OF_PERICENTER,MEAN_ANOMALY,EPHEMERIS_TYPE,ELEMENT_SET_NO,REV_AT_EPOCH,BSTAR,MEAN_MOTION_DOT,MEAN_MOTION_DDOT,FILE,TLE_LINE0,TLE_LINE1,TLE_LINE2,OBJECT_ID,OBJECT_NUMBER,SEMIMAJOR_AXIS,PERIOD,APOGEE,PERIGEE,DECAYED
GENERATED VIA SPACETRACK.ORG API,18 SPCS,44336,ARIANE 5 DEB (SYLDA),DEBRIS,U,19034D,2023-07-17 22:44:39,762816,3.20592083,0.6577297,5.9941,45.0008,197.1069,121.0628,0,999,3922,0.0071622,0.00029276,0,3961004,0 ARIANE 5 DEB (SYLDA),1 44336U 19034D   23198.94768244  .00029276  00000-0  71622-2 0  9990,2 44336   5.9941  45.0008 6577297 197.1069 121.0628  3.20592083 39221,2019-034D,44336,19428.233,449.169,25828.625,271.572,0
GENERATED VIA SPACETRACK.ORG API,18 SPCS,44336,ARIANE 5 DEB (SYLDA),DEBRIS,U,19034D,2023-07-18 13:40:02,183808,3.2062575,0.6577057,5.9957,44.6167,197.874,118.7241,0,999,3924,0.0060345,0.0002467,0,3961607,0 ARIANE 5 DEB (SYLDA),1 44336U 19034D   23199.56946972  .00024670  00000-0  60345-2 0  9998,2 44336   5.9957  44.6167 6577057 197.8740 118.7241  3.20625750 39240,2019-034D,44336,19426.873,449.122,25825.904,271.573,0
GENERATED VIA SPACETRACK.ORG API,18 SPCS,44336,ARIANE 5 DEB (SYLDA),DEBRIS,U,19034D,2023-07-19 12:03:00,388512,3.20671922,0.657678,5.9977,44.0395,199.023,115.2825,0,999,3927,0.0055944,0.00022898,0,3962615,0 ARIANE 5 DEB (SYLDA),1 44336U 19034D   23200.50208783  .00022898  00000-0  55944-2 0  9995,2 44336   5.9977  44.0395 6576780 199.0230 115.2825  3.20671922 39274,2019-034D,44336,19425.009,449.057,25822.274,271.473,0
GENERATED VIA SPACETRACK.ORG API,18 SPCS,44336,ARIANE 5 DEB (SYLDA),DEBRIS,U,19034D,2023-07-21 01:21:04,700160,3.20745488,0.6576066,6.0017,43.0738,200.9393,109.7011,0,999,3932,0.0059058,0.0002396,0,3963312,0 ARIANE 5 DEB (SYLDA),1 44336U 19034D   23202.05630440  .00023960  00000-0  59058-2 0  9997,2 44336   6.0017  43.0738 6576066 200.9393 109.7011  3.20745488 39320,2019-034D,44336,19422.038,448.954,25815.964,271.843,0
GENERATED VIA SPACETRACK.ORG API,18 SPCS,44336,ARIANE 5 DEB (SYLDA),DEBRIS,U,19034D,2023-07-24 11:23:52,485792,3.20914923,0.6574705,6.0101,40.9628,205.1527,98.146,0,999,3945,0.0058937,0.00023692,0,3963756,0 ARIANE 5 DEB (SYLDA),1 44336U 19034D   23205.47491303  .00023692  00000-0  58937-2 0  9996,2 44336   6.0101  40.9628 6574705 205.1527  98.1460  3.20914923 39457,2019-034D,44336,19415.201,448.717,25801.989,272.144,0
GENERATED VIA SPACETRACK.ORG API,18 SPCS,44336,ARIANE 5 DEB (SYLDA),DEBRIS,U,19034D,2023-07-25 09:46:14,122560,3.20961622,0.6574278,6.0121,40.3861,206.3021,95.1843,0,999,3948,0.0064323,0.00025797,0,3963759,0 ARIANE 5 DEB (SYLDA),1 44336U 19034D   23206.40710790  .00025797  00000-0  64323-2 0  9998,2 44336   6.0121  40.3861 6574278 206.3021  95.1843  3.20961622 39482,2019-034D,44336,19413.318,448.652,25798.038,272.328,0
GENERATED VIA SPACETRACK.ORG API,18 SPCS,44336,ARIANE 5 DEB (SYLDA),DEBRIS,U,19034D,2023-07-26 08:08:31,131744,3.21008049,0.6573893,6.0143,39.8076,207.4513,92.3114,0,999,3951,0.0076479,0.00030677,0,3963761,0 ARIANE 5 DEB (SYLDA),1 44336U 19034D   23207.33924921  .00030677  00000-0  76479-2 0  9992,2 44336   6.0143  39.8076 6573893 207.4513  92.3114  3.21008049 39517,2019-034D,44336,19411.446,448.587,25794.188,272.434,0
GENERATED VIA SPACETRACK.ORG API,18 SPCS,44336,ARIANE 5 DEB (SYLDA),DEBRIS,U,19034D,2023-07-26 15:35:55,523616,3.21027655,0.6573727,6.015,39.6158,207.8345,91.374,0,999,3952,0.0069467,0.00027843,0,3963989,0 ARIANE 5 DEB (SYLDA),1 44336U 19034D   23207.64994819  .00027843  00000-0  69467-2 0  9999,2 44336   6.0150  39.6158 6573727 207.8345  91.3740  3.21027655 39526,2019-034D,44336,19410.656,448.559,25792.556,272.486,0
GENERATED VIA SPACETRACK.ORG API,18 SPCS,44336,ARIANE 5 DEB (SYLDA),DEBRIS,U,19034D,2023-07-27 13:58:03,986976,3.21078897,0.6573361,6.017,39.0408,208.9848,88.6182,0,999,3955,0.0061093,0.0002453,0,3964647,0 ARIANE 5 DEB (SYLDA),1 44336U 19034D   23208.58199059  .00024530  00000-0  61093-2 0  9993,2 44336   6.0170  39.0408 6573361 208.9848  88.6182  3.21078897 39550,2019-034D,44336,19408.591,448.488,25788.423,272.488,0
GENERATED VIA SPACETRACK.ORG API,18 SPCS,44336,ARIANE 5 DEB (SYLDA),DEBRIS,U,19034D,2023-07-27 13:58:03,986976,3.21078897,0.6573361,6.017,39.0408,208.9848,88.6182,0,999,3953,0.0061093,0.0002453,0,3964686,0 ARIANE 5 DEB (SYLDA),1 44336U 19034D   23208.58199059  .00024530  00000-0  61093-2 0  9993,2 44336   6.0170  39.0408 6573361 208.9848  88.6182  3.21078897 39538,2019-034D,44336,19408.591,448.488,25788.423,272.488,0
GENERATED VIA SPACETRACK.ORG API,18 SPCS,44336,ARIANE 5 DEB (SYLDA),DEBRIS,U,19034D,2023-07-27 13:58:04,98432,3.21077709,0.6573365,6.0173,39.0402,208.9844,88.62,0,999,3955,0.0063278,0.00025405,0,3964919,0 ARIANE 5 DEB (SYLDA),1 44336U 19034D   23208.58199188  .00025405  00000-0  63278-2 0  9995,2 44336   6.0173  39.0402 6573365 208.9844  88.6200  3.21077709 39559,2019-034D,44336,19408.638,448.49,25788.51,272.497,0
GENERATED VIA SPACETRACK.ORG API,18 SPCS,44336,ARIANE 5 DEB (SYLDA),DEBRIS,U,19034D,2023-07-28 04:52:47,720640,3.21108859,0.6573085,6.0186,38.6601,209.7471,86.8447,0,999,3957,0.0056152,0.00022534,0,3965518,0 ARIANE 5 DEB (SYLDA),1 44336U 19034D   23209.20333010  .00022534  00000-0  56152-2 0  9992,2 44336   6.0186  38.6601 6573085 209.7471  86.8447  3.21108859 39579,2019-034D,44336,19407.383,448.446,25785.886,272.61,0
GENERATED VIA SPACETRACK.ORG API,18 SPCS,44336,ARIANE 5 DEB (SYLDA),DEBRIS,U,19034D,2023-07-29 18:09:25,797312,3.21192146,0.6572407,6.0232,37.7072,211.6562,82.5742,0,999,3960,0.0067379,0.00027071,0,3966774,0 ARIANE 5 DEB (SYLDA),1 44336U 19034D   23210.75654858  .00027071  00000-0  67379-2 0  9994,2 44336   6.0232  37.7072 6572407 211.6562  82.5742  3.21192146 39600,2019-034D,44336,19404.028,448.33,25779.01,272.776,0
GENERATED VIA SPACETRACK.ORG API,18 SPCS,44336,ARIANE 5 DEB (SYLDA),DEBRIS,U,19034D,2023-07-30 01:36:43,36128,3.21207784,0.6572278,6.0237,37.5148,212.0398,81.7445,0,999,3961,0.0058658,0.0002358,0,3967029,0 ARIANE 5 DEB (SYLDA),1 44336U 19034D   23211.06716477  .00023580  00000-0  58658-2 0  9996,2 44336   6.0237  37.5148 6572278 212.0398  81.7445  3.21207784 39612,2019-034D,44336,19403.398,448.308,25777.716,272.811,0
GENERATED VIA SPACETRACK.ORG API,18 SPCS,44336,ARIANE 5 DEB (SYLDA),DEBRIS,U,19034D,2023-07-30 23:58:31,376928,3.21256149,0.6571742,6.0262,36.9404,213.1887,79.3151,0,999,3964,0.0067445,0.00026959,0,3967824,0 ARIANE 5 DEB (SYLDA),1 44336U 19034D   23211.99897427  .00026959  00000-0  67445-2 0  9990,2 44336   6.0262  36.9404 6571742 213.1887  79.3151  3.21256149 39647,2019-034D,44336,19401.451,448.24,25773.449,273.183,0
GENERATED VIA SPACETRACK.ORG API,18 SPCS,44336,ARIANE 5 DEB (SYLDA),DEBRIS,U,19034D,2023-07-31 14:52:59,769408,3.21283752,0.6571619,6.0286,36.5584,213.9549,77.7316,0,999,3966,0.0059539,0.00023886,0,3968517,0 ARIANE 5 DEB (SYLDA),1 44336U 19034D   23212.62013622  .00023886  00000-0  59539-2 0  9999,2 44336   6.0286  36.5584 6571619 213.9549  77.7316  3.21283752 39661,2019-034D,44336,19400.34,448.202,25771.369,273.041,0
GENERATED VIA SPACETRACK.ORG API,18 SPCS,44336,ARIANE 5 DEB (SYLDA),DEBRIS,U,19034D,2023-08-02 04:09:00,258624,3.21364101,0.6570783,6.0316,35.6098,215.8573,73.9422,0,999,3971,0.0059623,0.00023684,0,3969491,0 ARIANE 5 DEB (SYLDA),1 44336U 19034D   23214.17291966  .00023684  00000-0  59623-2 0  9990,2 44336   6.0316  35.6098 6570783 215.8573  73.9422  3.21364101 39714,2019-034D,44336,19397.106,448.09,25764.388,273.553,0
GENERATED VIA SPACETRACK.ORG API,18 SPCS,44336,ARIANE 5 DEB (SYLDA),DEBRIS,U,19034D,2023-08-02 19:03:18,512064,3.21395694,0.657047,6.033,35.2296,216.6204,72.4686,0,999,3973,0.0071842,0.00028405,0,3970072,0 ARIANE 5 DEB (SYLDA),1 44336U 19034D   23214.79396426  .00028405  00000-0  71842-2 0  9998,2 44336   6.0330  35.2296 6570470 216.6204  72.4686  3.21395694 39738,2019-034D,44336,19395.835,448.046,25761.675,273.725,0
GENERATED VIA SPACETRACK.ORG API,18 SPCS,44336,ARIANE 5 DEB (SYLDA),DEBRIS,U,19034D,2023-08-03 09:57:34,131168,3.21427183,0.6570128,6.0349,34.8512,217.3781,71.0339,0,999,3975,0.0059208,0.00023297,0,3970756,0 ARIANE 5 DEB (SYLDA),1 44336U 19034D   23215.41497837  .00023297  00000-0  59208-2 0  9992,2 44336   6.0349  34.8512 6570128 217.3781  71.0339  3.21427183 39753,2019-034D,44336,19394.568,448.002,25758.912,273.954,0
GENERATED VIA SPACETRACK.ORG API,18 SPCS,44336,ARIANE 5 DEB (SYLDA),DEBRIS,U,19034D,2023-08-05 14:07:03,956736,3.21529997,0.6569445,6.0402,33.5174,220.049,66.1788,0,999,3982,0.0061367,0.00024064,0,3972397,0 ARIANE 5 DEB (SYLDA),1 44336U 19034D   23217.58824024  .00024064  00000-0  61367-2 0  9996,2 44336   6.0402  33.5174 6569445 220.0490  66.1788  3.21529997 39828,2019-034D,44336,19390.433,447.859,25750.737,273.86,0
GENERATED VIA SPACETRACK.ORG API,18 SPCS,44336,ARIANE 5 DEB (SYLDA),DEBRIS,U,19034D,2023-08-07 18:16:00,291072,3.21634409,0.6568838,6.0451,32.197,222.7068,61.7087,0,999,3989,0.0063403,0.0002493,0,3974285,0 ARIANE 5 DEB (SYLDA),1 44336U 19034D   23219.76111448  .00024930  00000-0  63403-2 0  9992,2 44336   6.0451  32.1970 6568838 222.7068  61.7087  3.21634409 39891,2019-034D,44336,19386.236,447.713,25742.606,273.597,0
GENERATED VIA SPACETRACK.ORG API,18 SPCS,44336,ARIANE 5 DEB (SYLDA),DEBRIS,U,19034D,2023-08-08 01:42:57,416832,3.21652207,0.6568685,6.0462,32.01,223.0839,61.1071,0,999,3990,0.0072369,0.00028454,0,3974809,0 ARIANE 5 DEB (SYLDA),1 44336U 19034D   23220.07149788  .00028454  00000-0  72369-2 0  9992,2 44336   6.0462  32.0100 6568685 223.0839  61.1071  3.21652207 39902,2019-034D,44336,19385.521,447.689,25741.125,273.648,0
